     2              NAVIGATION DATA                         RINEX VERSION / TYPE
CCRINEXN V1.6.0 UX  CDDIS               25-NOV-25 23:31     PGM / RUN BY / DATE 
IGS BROADCAST EPHEMERIS FILE                                COMMENT             
    0.1956D-07 -0.1490D-07 -0.1192D-06  0.1788D-06          ION ALPHA           
    0.1290D+06 -0.1475D+06  0.0000D+00 -0.6554D+05          ION BETA            
    0.279396772385D-08 0.710542735760D-14   319488     2394 DELTA-UTC: A0,A1,T,W
    18                                                      LEAP SECONDS        
                                                            END OF HEADER       
25 25 11 24 12  0  0.0 0.459872186184D-03-0.216004991671D-11 0.000000000000D+00
    0.350000000000D+02 0.181250000000D+01 0.491163316067D-08-0.158790692533D+01
    0.149011611938D-06 0.127483578399D-01 0.695697963238D-05 0.515376040459D+04
    0.129600000000D+06 0.294297933578D-06 0.269950398438D+01 0.126659870148D-06
    0.947958503968D+00 0.237093750000D+03 0.113916511827D+01-0.797426073140D-08
   -0.421803284086D-09 0.100000000000D+01 0.239400000000D+04 0.000000000000D+00
    0.200000000000D+01 0.000000000000D+00 0.558793544769D-08 0.350000000000D+02
    0.122418000000D+06 0.400000000000D+01 0.000000000000D+00 0.000000000000D+00
26 25 11 24 12  0  0.0-0.284467823803D-03-0.534328137292D-11 0.000000000000D+00
    0.550000000000D+02-0.107812500000D+02 0.535022285826D-08-0.244004020625D+01
   -0.616535544395D-06 0.107832355425D-01 0.696815550327D-05 0.515366301537D+04
    0.129600000000D+06 0.968575477600D-07 0.262686073907D+01-0.139698386192D-06
    0.928657147578D+00 0.228062500000D+03 0.680505579526D+00-0.821248494011D-08
   -0.300012496725D-09 0.100000000000D+01 0.239400000000D+04 0.000000000000D+00
    0.200000000000D+01 0.000000000000D+00 0.651925802231D-08 0.550000000000D+02
    0.122436000000D+06 0.400000000000D+01 0.000000000000D+00 0.000000000000D+00
28 25 11 24 12  0  0.0-0.629380811006D-03 0.295585778076D-11 0.000000000000D+00
    0.124000000000D+03-0.275000000000D+01 0.467019453235D-08-0.102237166950D+01
   -0.163912773132D-06 0.428324798122D-03 0.707246363163D-05 0.515372227287D+04
    0.129600000000D+06-0.260770320892D-07 0.164781416822D+01-0.149011611938D-07
    0.961213393185D+00 0.244500000000D+03 0.558939745261D+00-0.795461705601D-08
    0.242510101519D-09 0.100000000000D+01 0.239400000000D+04 0.000000000000D+00
    0.200000000000D+01 0.000000000000D+00-0.931322574616D-08 0.124000000000D+03
    0.122418000000D+06 0.400000000000D+01 0.000000000000D+00 0.000000000000D+00
29 25 11 24 12  0  0.0-0.420419964939D-03 0.591171556152D-11 0.000000000000D+00
    0.700000000000D+01 0.910312500000D+02 0.408731311014D-08 0.193399185013D+01
    0.482797622681D-05 0.328638718929D-02 0.929832458496D-05 0.515356936455D+04
    0.129600000000D+06-0.968575477600D-07-0.243975633870D+01 0.521540641785D-07
    0.963568722013D+00 0.201218750000D+03 0.278062845775D+01-0.770567811528D-08
   -0.191793703263D-09 0.100000000000D+01 0.239400000000D+04 0.000000000000D+00
    0.200000000000D+01 0.000000000000D+00-0.977888703346D-08 0.700000000000D+01
    0.122418000000D+06 0.400000000000D+01 0.000000000000D+00 0.000000000000D+00
30 25 11 24 12  0  0.0 0.343918800354D-04 0.117097442853D-10 0.000000000000D+00
    0.960000000000D+02 0.125000000000D+00 0.532093592405D-08-0.954337599215D+00
   -0.409781932831D-07 0.771897239611D-02 0.668130815029D-05 0.515357765388D+04
    0.129600000000D+06 0.139698386192D-06 0.166714533011D+01 0.180676579475D-06
    0.935481319558D+00 0.235468750000D+03-0.235382172631D+01-0.828820237975D-08
    0.202865593023D-09 0.100000000000D+01 0.239400000000D+04 0.000000000000D+00
    0.200000000000D+01 0.000000000000D+00 0.419095200000D-08 0.960000000000D+02
    0.122460000000D+06 0.400000000000D+01 0.000000000000D+00 0.000000000000D+00
31 25 11 24 12  0  0.0-0.181337352842D-03 0.181898940355D-11 0.000000000000D+00
    0.169000000000D+03 0.250000000000D+01 0.486377402428D-08-0.187928175684D+01
    0.117346644402D-06 0.109176361002D-01 0.653229653835D-05 0.515374011803D+04
    0.129600000000D+06 0.137835741043D-06 0.169850326002D+01-0.465661287308D-07
    0.954048317405D+00 0.247406250000D+03 0.913179313378D+00-0.794318800852D-08
    0.320370487574D-09 0.100000000000D+01 0.239400000000D+04 0.000000000000D+00
    0.200000000000D+01 0.000000000000D+00-0.135041773319D-07 0.169000000000D+03
    0.122418000000D+06 0.400000000000D+01 0.000000000000D+00 0.000000000000D+00
32 25 11 24 12  0  0.0-0.235408544540D-03 0.155750967679D-10 0.000000000000D+00
    0.800000000000D+02-0.741562500000D+02 0.414231540121D-08 0.273016957953D+01
   -0.386871397495D-05 0.891413819045D-02 0.920705497265D-05 0.515369606972D+04
    0.129600000000D+06 0.335276126862D-07 0.618225422062D+00-0.130385160446D-06
    0.966875746347D+00 0.203125000000D+03-0.205265046534D+01-0.756960101855D-08
    0.226438003480D-09 0.100000000000D+01 0.239400000000D+04 0.000000000000D+00
    0.200000000000D+01 0.000000000000D+00 0.931322574616D-09 0.800000000000D+02
    0.122418000000D+06 0.400000000000D+01 0.000000000000D+00 0.000000000000D+00
 1 25 11 24 12 44 32.0 0.353875569999D-03-0.795807864051D-12 0.000000000000D+00
    0.239000000000D+03 0.589687500000D+02 0.461233497941D-08 0.135365897312D+01
    0.297278165817D-05 0.107983639464D-02 0.187382102013D-05 0.515364449882D+04
    0.132272000000D+06 0.298023223877D-07-0.139038617226D+01 0.260770320892D-07
    0.958401540288D+00 0.343000000000D+03-0.878423775248D-01-0.831177479021D-08
    0.121433629627D-09 0.100000000000D+01 0.239400000000D+04 0.000000000000D+00
    0.200000000000D+01 0.000000000000D+00-0.884756445885D-08 0.495000000000D+03
    0.129576000000D+06 0.400000000000D+01 0.000000000000D+00 0.000000000000D+00
18 25 11 24 12 44 32.0-0.494526233524D-03 0.989075488178D-11 0.000000000000D+00
    0.580000000000D+02 0.698125000000D+02 0.429339312277D-08 0.287201161344D+00
    0.370293855667D-05 0.569495325908D-02 0.299513339996D-05 0.515365803909D+04
    0.132272000000D+06 0.596046447754D-07-0.144630886372D+01 0.707805156708D-07
    0.972334805099D+00 0.327187500000D+03-0.286228979720D+01-0.819855578847D-08
    0.187507810453D-09 0.100000000000D+01 0.239400000000D+04 0.000000000000D+00
    0.200000000000D+01 0.000000000000D+00-0.838190317154D-08 0.580000000000D+02
    0.125118000000D+06 0.400000000000D+01 0.000000000000D+00 0.000000000000D+00
 5 25 11 24 13 59 44.0-0.224251300096D-03-0.682121026330D-12 0.000000000000D+00
    0.300000000000D+01-0.822812500000D+02 0.416695928487D-08-0.291871838621D+01
   -0.445544719696D-05 0.546670076437D-02 0.292435288429D-05 0.515365242386D+04
    0.136784000000D+06 0.633299350738D-07-0.464797037462D+00 0.931322574616D-08
    0.978946995860D+00 0.330468750000D+03 0.143947088180D+01-0.800104756146D-08
   -0.571452374714D-10 0.100000000000D+01 0.239400000000D+04 0.000000000000D+00
    0.200000000000D+01 0.000000000000D+00-0.107102096081D-07 0.300000000000D+01
    0.129618000000D+06 0.400000000000D+01 0.000000000000D+00 0.000000000000D+00
16 25 11 24 13 59 44.0 0.153421424329D-03 0.795807864051D-11 0.000000000000D+00
    0.700000000000D+01-0.290625000000D+01 0.459090551536D-08-0.225774001129D+01
   -0.212341547012D-06 0.148663028376D-01 0.747479498386D-05 0.515359609413D+04
    0.136784000000D+06 0.175088644028D-06 0.280925464123D+01-0.782310962677D-07
    0.958935919393D+00 0.232593750000D+03 0.908676783613D+00-0.773389357628D-08
   -0.327513642258D-09 0.100000000000D+01 0.239400000000D+04 0.000000000000D+00
    0.200000000000D+01 0.000000000000D+00-0.102445483208D-07 0.700000000000D+01
    0.129618000000D+06 0.400000000000D+01 0.000000000000D+00 0.000000000000D+00
30 25 11 24 13 59 44.0 0.344761647284D-04 0.117097442853D-10 0.000000000000D+00
    0.120000000000D+02 0.406250000000D+01 0.544379818462D-08 0.935952736131D-01
    0.253319740295D-06 0.771956297103D-02 0.651553273201D-05 0.515357880020D+04
    0.136784000000D+06-0.428408384323D-07 0.166708459999D+01 0.651925802231D-07
    0.935482065646D+00 0.237812500000D+03-0.235384263433D+01-0.848785355317D-08
    0.237152735506D-09 0.100000000000D+01 0.239400000000D+04 0.000000000000D+00
    0.200000000000D+01 0.000000000000D+00 0.419095158577D-08 0.120000000000D+02
    0.132948000000D+06 0.400000000000D+01 0.000000000000D+00 0.000000000000D+00
 1 25 11 24 14  0  0.0 0.353871844709D-03-0.795807864051D-12 0.000000000000D+00
    0.000000000000D+00 0.587812500000D+02 0.454161774804D-08 0.201295388628D+01
    0.296719372273D-05 0.107971474063D-02 0.222399830818D-05 0.515364682579D+04
    0.136800000000D+06 0.186264514923D-07-0.139042384387D+01 0.391155481338D-07
    0.958402102049D+00 0.333312500000D+03-0.866791513803D-01-0.830927468607D-08
    0.130005415247D-09 0.100000000000D+01 0.239400000000D+04 0.000000000000D+00
    0.200000000000D+01 0.000000000000D+00-0.884756445885D-08 0.512000000000D+03
    0.129618000000D+06 0.400000000000D+01 0.000000000000D+00 0.000000000000D+00
 2 25 11 24 14  0  0.0-0.204206444323D-04 0.852651282912D-11 0.000000000000D+00
    0.450000000000D+02 0.871875000000D+02 0.424124809358D-08-0.291281003313D+01
    0.462867319584D-05 0.168516550912D-01 0.266917049885D-05 0.515363894463D+04
    0.136800000000D+06-0.931322574616D-08-0.155352975633D+01 0.236555933952D-06
    0.963987290671D+00 0.324656250000D+03-0.892705558347D+00-0.789354308347D-08
    0.199651173416D-09 0.100000000000D+01 0.239400000000D+04 0.000000000000D+00
    0.200000000000D+01 0.000000000000D+00-0.176951289177D-07 0.450000000000D+02
    0.129618000000D+06 0.400000000000D+01 0.000000000000D+00 0.000000000000D+00
